STARLINK-1434           
1 45712U 20035BH  26068.24137979  .00054112  00000+0  20295-2 0  9995
2 45712  53.0547  22.1128 0005343  88.0400 272.1210 15.26724568319325
STARLINK-30955          
1 58417U 23180R   26068.31578766  .00000657  00000+0  33361-4 0  9991
2 58417  43.0014  54.2327 0000154 229.9760 130.1078 15.27581809127575
