[{"OBJECT_NAME":"STARLINK-1434","OBJECT_ID":"2020-035BH","EPOCH":"2026-03-09T05:47:35.213856","MEAN_MOTION":15.26724568,"ECCENTRICITY":0.00053438,"INCLINATION":53.0547,"RA_OF_ASC_NODE":22.1128,"ARG_OF_PERICENTER":88.04,"MEAN_ANOMALY":272.121,"EPHEMERIS_TYPE":0,"CLASSIFICATION_TYPE":"U","NORAD_CAT_ID":45712,"ELEMENT_SET_NO":999,"REV_AT_EPOCH":31932,"BSTAR":0.0020295208,"MEAN_MOTION_DOT":0.00054112,"MEAN_MOTION_DDOT":0},{"OBJECT_NAME":"STARLINK-30955","OBJECT_ID":"2023-180R","EPOCH":"2026-03-09T07:34:44.053824","MEAN_MOTION":15.27581809,"ECCENTRICITY":1.546e-5,"INCLINATION":43.0014,"RA_OF_ASC_NODE":54.2327,"ARG_OF_PERICENTER":229.976,"MEAN_ANOMALY":130.1078,"EPHEMERIS_TYPE":0,"CLASSIFICATION_TYPE":"U","NORAD_CAT_ID":58417,"ELEMENT_SET_NO":999,"REV_AT_EPOCH":12757,"BSTAR":3.3361208e-5,"MEAN_MOTION_DOT":6.57e-6,"MEAN_MOTION_DDOT":0}]
